{
  "type": "FeatureCollection",
  "features": [
    {
      "type": "Feature",
      "properties": {
        "norad_id": 59626,
        "name": "LEGION 2",
        "group": "resource",
        "lat": -48.660181285097146,
        "lon": 65.01731901958361,
        "alt_km": 519.4491782526147,
        "timestamp": "2025-12-07T14:37:04.867337+00:00",
        "meta_object_name": "LEGION 2",
        "meta_object_id": "2024-081B",
        "meta_epoch": "2025-12-06T21:24:50.101056",
        "meta_mean_motion": 15.16404214,
        "meta_eccentricity": 0.00060165,
        "meta_inclination": 97.5223,
        "meta_ra_of_asc_node": 55.668,
        "meta_arg_of_pericenter": 317.7918,
        "meta_mean_anomaly": 42.2851,
        "meta_ephemeris_type": 0,
        "meta_classification_type": "U",
        "meta_norad_cat_id": 59626,
        "meta_element_set_no": 999,
        "meta_rev_at_epoch": 8839,
        "meta_bstar": 0.00042677118,
        "meta_mean_motion_dot": 8.23e-05,
        "meta_mean_motion_ddot": 0,
        "tle_line1": "1 59626U 24081B   25340.89224654  .00008230  00000+0  42677-3 0  9998",
        "tle_line2": "2 59626  97.5223  55.6680 0006016 317.7918  42.2851 15.16404214 88395"
      },
      "geometry": {
        "type": "Point",
        "coordinates": [
          65.01731901958361,
          -48.660181285097146
        ]
      }
    },
    {
      "type": "Feature",
      "properties": {
        "norad_id": 60182,
        "name": "ALOS-4 (DAICHI-4)",
        "group": "resource",
        "lat": -68.65835272645178,
        "lon": 97.41012426612622,
        "alt_km": 638.9191952739475,
        "timestamp": "2025-12-07T14:37:04.867347+00:00",
        "meta_object_name": "ALOS-4 (DAICHI-4)",
        "meta_object_id": "2024-123A",
        "meta_epoch": "2025-12-06T21:04:46.101504",
        "meta_mean_motion": 14.79465202,
        "meta_eccentricity": 0.00010039,
        "meta_inclination": 97.9228,
        "meta_ra_of_asc_node": 75.8094,
        "meta_arg_of_pericenter": 133.841,
        "meta_mean_anomaly": 226.2884,
        "meta_ephemeris_type": 0,
        "meta_classification_type": "U",
        "meta_norad_cat_id": 60182,
        "meta_element_set_no": 999,
        "meta_rev_at_epoch": 7744,
        "meta_bstar": 0.00052544551,
        "meta_mean_motion_dot": 3.874e-05,
        "meta_mean_motion_ddot": 0,
        "tle_line1": "1 60182U 24123A   25340.87831136  .00003874  00000+0  52545-3 0  9995",
        "tle_line2": "2 60182  97.9228  75.8094 0001003 133.8410 226.2884 14.79465202 77447"
      },
      "geometry": {
        "type": "Point",
        "coordinates": [
          97.41012426612622,
          -68.65835272645178
        ]
      }
    },
    {
      "type": "Feature",
      "properties": {
        "norad_id": 60452,
        "name": "LEGION 3",
        "group": "resource",
        "lat": -23.396526648129775,
        "lon": -48.020846189794455,
        "alt_km": 530.2432937703279,
        "timestamp": "2025-12-07T14:37:04.867358+00:00",
        "meta_object_name": "LEGION 3",
        "meta_object_id": "2024-146A",
        "meta_epoch": "2025-12-06T11:52:40.770048",
        "meta_mean_motion": 15.15662815,
        "meta_eccentricity": 0.00141405,
        "meta_inclination": 45.0027,
        "meta_ra_of_asc_node": 343.6074,
        "meta_arg_of_pericenter": 163.9855,
        "meta_mean_anomaly": 196.1473,
        "meta_ephemeris_type": 0,
        "meta_classification_type": "U",
        "meta_norad_cat_id": 60452,
        "meta_element_set_no": 999,
        "meta_rev_at_epoch": 7278,
        "meta_bstar": 0.00047300959,
        "meta_mean_motion_dot": 8.918e-05,
        "meta_mean_motion_ddot": 0,
        "tle_line1": "1 60452U 24146A   25340.49491632  .00008918  00000+0  47301-3 0  9999",
        "tle_line2": "2 60452  45.0027 343.6074 0014140 163.9855 196.1473 15.15662815 72786"
      },
      "geometry": {
        "type": "Point",
        "coordinates": [
          -48.020846189794455,
          -23.396526648129775
        ]
      }
    },
    {
      "type": "Feature",
      "properties": {
        "norad_id": 60453,
        "name": "LEGION 4",
        "group": "resource",
        "lat": -26.113644765897334,
        "lon": 40.03766968119794,
        "alt_km": 515.9260086851718,
        "timestamp": "2025-12-07T14:37:04.867368+00:00",
        "meta_object_name": "LEGION 4",
        "meta_object_id": "2024-146B",
        "meta_epoch": "2025-12-06T18:13:27.566112",
        "meta_mean_motion": 15.15731499,
        "meta_eccentricity": 0.00099106,
        "meta_inclination": 45.0391,
        "meta_ra_of_asc_node": 73.9235,
        "meta_arg_of_pericenter": 279.811,
        "meta_mean_anomaly": 80.165,
        "meta_ephemeris_type": 0,
        "meta_classification_type": "U",
        "meta_norad_cat_id": 60453,
        "meta_element_set_no": 999,
        "meta_rev_at_epoch": 7167,
        "meta_bstar": 0.00048560368,
        "meta_mean_motion_dot": 9.171e-05,
        "meta_mean_motion_ddot": 0,
        "tle_line1": "1 60453U 24146B   25340.75934683  .00009171  00000+0  48560-3 0  9997",
        "tle_line2": "2 60453  45.0391  73.9235 0009910 279.8110  80.1650 15.15731499 71674"
      },
      "geometry": {
        "type": "Point",
        "coordinates": [
          40.03766968119794,
          -26.113644765897334
        ]
      }
    },
    {
      "type": "Feature",
      "properties": {
        "norad_id": 60989,
        "name": "SENTINEL-2C",
        "group": "resource",
        "lat": -50.25682794105925,
        "lon": -136.28210602884096,
        "alt_km": 796.4630571699599,
        "timestamp": "2025-12-07T14:37:04.867378+00:00",
        "meta_object_name": "SENTINEL-2C",
        "meta_object_id": "2024-157A",
        "meta_epoch": "2025-12-06T22:26:13.184448",
        "meta_mean_motion": 14.30813962,
        "meta_eccentricity": 0.00011615,
        "meta_inclination": 98.5687,
        "meta_ra_of_asc_node": 53.5007,
        "meta_arg_of_pericenter": 98.9112,
        "meta_mean_anomaly": 261.2203,
        "meta_ephemeris_type": 0,
        "meta_classification_type": "U",
        "meta_norad_cat_id": 60989,
        "meta_element_set_no": 999,
        "meta_rev_at_epoch": 6549,
        "meta_bstar": 0.00013396443,
        "meta_mean_motion_dot": 3.08e-06,
        "meta_mean_motion_ddot": 0,
        "tle_line1": "1 60989U 24157A   25340.93487482  .00000308  00000+0  13396-3 0  9995",
        "tle_line2": "2 60989  98.5687  53.5007 0001161  98.9112 261.2203 14.30813962 65493"
      },
      "geometry": {
        "type": "Point",
        "coordinates": [
          -136.28210602884096,
          -50.25682794105925
        ]
      }
    },
    {
      "type": "Feature",
      "properties": {
        "norad_id": 61735,
        "name": "IONOSFERA-M 1",
        "group": "resource",
        "lat": -71.23727818127172,
        "lon": -121.57196858035708,
        "alt_km": 823.6372106701137,
        "timestamp": "2025-12-07T14:37:04.867389+00:00",
        "meta_object_name": "IONOSFERA-M 1",
        "meta_object_id": "2024-199A",
        "meta_epoch": "2025-12-06T22:05:00.553056",
        "meta_mean_motion": 14.22712035,
        "meta_eccentricity": 0.00012388,
        "meta_inclination": 98.7415,
        "meta_ra_of_asc_node": 210.8128,
        "meta_arg_of_pericenter": 30.2535,
        "meta_mean_anomaly": 329.8714,
        "meta_ephemeris_type": 0,
        "meta_classification_type": "U",
        "meta_norad_cat_id": 61735,
        "meta_element_set_no": 999,
        "meta_rev_at_epoch": 10036,
        "meta_bstar": 8.7467578e-05,
        "meta_mean_motion_dot": 1.52e-06,
        "meta_mean_motion_ddot": 0,
        "tle_line1": "1 61735U 24199A   25340.92014529  .00000152  00000+0  87468-4 0  9997",
        "tle_line2": "2 61735  98.7415 210.8128 0001238  30.2535 329.8714 14.22712035100363"
      },
      "geometry": {
        "type": "Point",
        "coordinates": [
          -121.57196858035708,
          -71.23727818127172
        ]
      }
    },
    {
      "type": "Feature",
      "properties": {
        "norad_id": 61736,
        "name": "IONOSFERA-M 2",
        "group": "resource",
        "lat": 68.81361876431555,
        "lon": 54.796366902074624,
        "alt_km": 808.4064899604846,
        "timestamp": "2025-12-07T14:37:04.867399+00:00",
        "meta_object_name": "IONOSFERA-M 2",
        "meta_object_id": "2024-199B",
        "meta_epoch": "2025-12-06T22:54:54.655200",
        "meta_mean_motion": 14.22714186,
        "meta_eccentricity": 0.000149,
        "meta_inclination": 98.7413,
        "meta_ra_of_asc_node": 210.7598,
        "meta_arg_of_pericenter": 117.6144,
        "meta_mean_anomaly": 242.5185,
        "meta_ephemeris_type": 0,
        "meta_classification_type": "U",
        "meta_norad_cat_id": 61736,
        "meta_element_set_no": 999,
        "meta_rev_at_epoch": 10349,
        "meta_bstar": 8.7900097e-05,
        "meta_mean_motion_dot": 1.53e-06,
        "meta_mean_motion_ddot": 0,
        "tle_line1": "1 61736U 24199B   25340.95479925  .00000153  00000+0  87900-4 0  9998",
        "tle_line2": "2 61736  98.7413 210.7598 0001490 117.6144 242.5185 14.22714186103497"
      },
      "geometry": {
        "type": "Point",
        "coordinates": [
          54.796366902074624,
          68.81361876431555
        ]
      }
    }
  ]
}